OBJECT_NAME,OBJECT_ID,EPOCH,MEAN_MOTION,ECCENTRICITY,INCLINATION,RA_OF_ASC_NODE,ARG_OF_PERICENTER,MEAN_ANOMALY,EPHEMERIS_TYPE,CLASSIFICATION_TYPE,NORAD_CAT_ID,ELEMENT_SET_NO,REV_AT_EPOCH,BSTAR,MEAN_MOTION_DOT,MEAN_MOTION_DDOT
STARLINK-32082,2024-136T,2026-06-06T04:06:25.151616,15.30187233,.0001446,53.1614,24.5253,71.7668,288.3490,0,U,60346,999,10321,-.29453E-4,-.1231E-4,0
STARLINK-32084,2024-136U,2026-06-06T08:30:36.509472,15.31703025,.00014905,53.1609,23.5317,95.3982,264.7189,0,U,60347,999,10324,.23226459E-4,.356E-5,0
STARLINK-32081,2024-136V,2026-06-06T08:10:26.481792,15.31705272,.00010188,53.1618,23.4498,98.6897,261.4220,0,U,60348,999,10324,.56025039E-4,.1374E-4,0
STARLINK-32181,2024-136W,2026-06-05T20:19:15.813120,15.34393599,.00015358,53.1624,24.6364,68.2510,291.8656,0,U,60349,999,10318,.34677558E-4,.795E-5,0
STARLINK-32076,2024-136X,2026-06-06T08:03:42.757920,15.31715744,.00012154,53.1606,23.4190,87.9167,272.1973,0,U,60350,999,10324,.13192446E-3,.3733E-4,0
STARLINK-32097,2024-136Y,2026-06-05T20:16:14.026656,15.34395895,.00009108,53.1594,24.6197,85.8608,274.2499,0,U,60351,999,10318,.12160663E-3,.3734E-4,0
STRIX-4,2024-137A,2026-06-06T22:06:40.167936,15.32208564,.00183333,43.0164,343.4041,239.8904,120.0133,0,U,60352,999,10244,.70600692E-3,.22322E-3,0
STARLINK-32285,2024-138A,2026-06-06T14:11:58.261920,15.30212127,.00012157,53.1621,256.3300,64.1169,295.9957,0,U,60355,999,10424,.16099881E-3,.4414E-4,0
STARLINK-32278,2024-138B,2026-06-06T14:07:34.295232,15.30212932,.00011258,53.1599,257.0100,94.0894,266.0236,0,U,60356,999,10423,.12456632E-3,.3333E-4,0
STARLINK-32287,2024-138D,2026-06-06T14:03:00.579168,15.30218086,.00015397,53.1607,257.0002,91.9044,268.2133,0,U,60358,999,10423,.1400657E-3,.3793E-4,0
STARLINK-32290,2024-138E,2026-06-06T14:06:04.028832,15.30221479,.00010954,53.1586,257.0172,80.6983,279.4141,0,U,60359,999,8526,.36950711E-3,.10607E-3,0
STARLINK-32275,2024-138F,2026-06-06T14:01:45.121728,15.31734930,.00008524,53.1600,256.2843,97.3691,262.7408,0,U,60360,999,10424,.15606135E-3,.4486E-4,0
STARLINK-32227,2024-138G,2026-06-06T13:56:55.937472,15.30212474,.00010068,53.1603,256.9638,93.6443,266.4673,0,U,60361,999,10424,.11912054E-3,.3172E-4,0
STARLINK-32256,2024-138H,2026-06-06T14:04:33.259584,15.30206661,.0002789,53.1605,256.9935,32.4902,327.6270,0,U,60362,999,10422,.26660008E-3,.7546E-4,0
STARLINK-32267,2024-138J,2026-06-06T13:49:20.911008,15.30208636,.0001168,53.1602,256.9419,76.0864,284.0267,0,U,60363,999,10423,.81434E-4,.2054E-4,0
STARLINK-32270,2024-138K,2026-06-06T22:00:03.000096,15.31723333,.00014918,53.1587,255.2507,83.7410,49.3274,0,U,60364,999,556,-.63809357E-3,-.20128E-3,0
STARLINK-32188,2024-138L,2026-06-06T13:01:53.740704,15.31717134,.00006895,53.1576,256.7333,98.9175,261.1904,0,U,60365,999,10423,.19235739E-3,.5612E-4,0
STARLINK-32230,2024-138M,2026-06-06T13:46:20.296128,15.30196486,.0001065,53.1600,256.9300,105.1223,254.9896,0,U,60366,999,10423,.80632E-5,-.12E-5,0
STARLINK-32243,2024-138N,2026-06-06T13:22:03.326880,15.31731027,.0000947,53.1593,256.8172,42.2501,317.8573,0,U,60367,999,10423,.99203E-5,-.57E-6,0
STARLINK-32271,2024-138P,2026-06-06T13:59:58.882560,15.30210190,.00009526,53.1598,256.9864,89.0943,271.0167,0,U,60368,999,10423,.13908418E-3,.3764E-4,0
STARLINK-32220,2024-138R,2026-06-06T13:40:12.787680,15.30231104,.0001179,53.1616,256.8950,78.1531,281.9602,0,U,60370,999,10423,.22846E-3,.6419E-4,0
STARLINK-32263,2024-138S,2026-06-06T14:16:32.254464,15.30188677,.000192,53.1616,256.3480,46.5379,313.5781,0,U,60371,999,10414,.27544474E-3,.7804E-4,0
STARLINK-32268,2024-138T,2026-06-06T14:01:32.384640,15.30187167,.00010819,53.1583,256.9940,83.5251,276.5873,0,U,60372,999,10423,.49472009E-4,.1106E-4,0
STARLINK-32223,2024-138U,2026-06-06T13:15:20.175840,15.31720148,.0001032,53.1611,256.7896,71.1501,288.9612,0,U,60373,999,10413,.88327E-4,.2378E-4,0
STARLINK-32180,2024-138V,2026-06-06T12:55:09.594336,15.31723663,.00012582,53.1594,256.7014,90.0221,270.0925,0,U,60374,999,10423,.19290303E-3,.563E-4,0
STARLINK-32281,2024-138W,2026-06-06T12:56:10.989312,15.30211823,.00012219,53.1589,256.7085,73.6292,286.4843,0,U,60375,999,10413,-.16728416E-3,-.5312E-4,0
STARLINK-32277,2024-138X,2026-06-06T23:09:07.177824,15.30199122,.00012558,53.1592,255.0972,90.9728,269.1416,0,U,60376,999,10429,-.30763283E-4,-.127E-4,0
STARLINK-32269,2024-138Y,2026-06-06T13:22:01.693920,15.30195626,.0001051,53.1594,256.8097,68.5999,291.5114,0,U,60377,999,10423,-.18755E-4,-.914E-5,0
QIANFAN-1,2024-140A,2026-06-06T21:20:54.310272,13.51012764,.00192556,88.9728,280.9975,70.3477,289.9750,0,U,60379,999,9113,.15672119E-3,.114E-5,0
QIANFAN-2,2024-140B,2026-06-06T22:02:17.330496,13.51008117,.00137596,88.9715,280.8098,46.9270,313.3030,0,U,60380,999,9119,.14335855E-3,.105E-5,0
QIANFAN-3,2024-140C,2026-06-06T22:14:08.289312,13.51009233,.00152708,88.9707,280.9283,57.7856,302.4773,0,U,60381,999,9110,.16232161E-3,.117E-5,0
QIANFAN-4,2024-140D,2026-06-06T21:38:34.888416,13.51011890,.00140775,88.9732,280.8728,49.2309,311.0061,0,U,60382,999,9122,.17249538E-3,.124E-5,0
QIANFAN-5,2024-140E,2026-06-06T21:03:02.556288,13.51010717,.00168523,88.9706,280.9582,67.5204,292.7730,0,U,60383,999,9108,.14026896E-3,.103E-5,0
QIANFAN-6,2024-140F,2026-06-06T21:32:38.555808,13.51011333,.00143938,88.9734,280.7499,54.5044,305.7448,0,U,60384,999,9128,.16090061E-3,.116E-5,0
QIANFAN-7,2024-140G,2026-06-06T22:29:58.922592,14.27828486,.00157215,88.9769,272.9778,171.7903,188.3552,0,U,60385,999,9553,.23155349E-3,.587E-5,0
QIANFAN-8,2024-140H,2026-06-06T21:44:26.361888,13.51007788,.00178881,88.9735,280.9889,55.0587,305.2242,0,U,60386,999,9113,.16049376E-3,.116E-5,0
QIANFAN-9,2024-140J,2026-06-06T21:08:58.816320,13.51013170,.00175682,88.9732,281.0634,55.0421,305.2378,0,U,60387,999,9111,.14634523E-3,.107E-5,0
QIANFAN-10,2024-140K,2026-06-06T19:28:17.514048,13.51014187,.00152775,88.9744,280.4357,34.6749,325.5395,0,U,60388,999,9123,.17320271E-3,.124E-5,0
QIANFAN-11,2024-140L,2026-06-06T22:08:06.453888,13.51008448,.0015607,88.9669,280.8791,55.4052,304.8569,0,U,60389,999,9090,.16641696E-3,.12E-5,0
QIANFAN-12,2024-140M,2026-06-06T20:51:15.515712,13.51010522,.00146725,88.9711,281.0049,63.5037,296.7617,0,U,60390,999,9102,.14133668E-3,.103E-5,0
QIANFAN-13,2024-140N,2026-06-06T21:56:22.519392,13.51010572,.00145603,88.9723,281.1215,65.8443,294.4229,0,U,60391,999,9105,.15338131E-3,.111E-5,0
QIANFAN-14,2024-140P,2026-06-06T18:58:29.107488,13.51011655,.001823,88.9702,280.9947,64.7615,295.5423,0,U,60392,999,9104,.12961706E-3,.96E-6,0
QIANFAN-15,2024-140Q,2026-06-06T20:57:00.127296,13.51013405,.00136569,88.9726,280.9844,53.8233,306.4179,0,U,60393,999,9104,.13992333E-3,.103E-5,0
QIANFAN-16,2024-140R,2026-06-06T22:26:08.907648,13.51012503,.00162772,88.9729,281.1032,68.4962,291.7923,0,U,60394,999,9096,.1390652E-3,.102E-5,0
QIANFAN-17,2024-140S,2026-06-06T22:19:59.351520,13.51008957,.00165048,88.9740,281.1688,62.6751,297.6078,0,U,60395,999,9192,.14977804E-3,.109E-5,0
QIANFAN-18,2024-140T,2026-06-06T18:16:59.549376,13.51013269,.00153184,88.9734,280.7079,47.6008,312.6437,0,U,60396,999,9129,.14239036E-3,.104E-5,0
STARLINK-11228 [DTC],2024-141A,2026-06-05T19:32:19.692384,15.69708331,.00007503,53.1577,11.8588,58.4366,301.6725,0,U,60398,999,10553,.5888846E-5,.125E-5,0
STARLINK-11182 [DTC],2024-141B,2026-06-06T07:24:36.118368,15.69720889,.00012068,53.1602,9.2444,83.6213,276.4942,0,U,60399,999,10566,.204928E-4,.1895E-4,0
STARLINK-11234 [DTC],2024-141C,2026-06-05T20:35:44.996352,15.69711224,.00008119,53.1590,11.4154,66.0028,294.1075,0,U,60400,999,10554,.480767E-5,-.6E-7,0
STARLINK-11232 [DTC],2024-141D,2026-06-06T20:55:40.792224,15.69700410,.00014458,53.1589,6.3563,89.5385,270.5798,0,U,60401,999,10575,-.856707E-6,-.693E-5,0
STARLINK-11139 [DTC],2024-141E,2026-06-06T20:48:34.321824,15.69717879,.00015944,53.1593,6.3284,91.1980,268.9220,0,U,60402,999,10575,.11865706E-4,.849E-5,0
STARLINK-11158 [DTC],2024-141F,2026-06-06T06:56:28.242528,15.69724482,.00007348,53.1593,9.8512,86.9456,273.1646,0,U,60403,999,10560,.22031058E-4,.2083E-4,0
STARLINK-11199 [DTC],2024-141G,2026-06-06T20:34:34.989024,15.69709996,.00007344,53.1577,6.9883,114.3203,245.7892,0,U,60404,999,10574,.4072755E-5,-.95E-6,0
STARLINK-11081 [DTC],2024-141H,2026-06-06T20:27:30.490272,15.69715983,.00009189,53.1594,6.9614,103.6033,256.5088,0,U,60405,999,10569,.10560465E-4,.691E-5,0
STARLINK-11150 [DTC],2024-141J,2026-06-06T20:20:27.004128,15.69715477,.00005771,53.1560,6.9260,91.3585,268.7499,0,U,60406,999,10574,.19519647E-4,.1778E-4,0
STARLINK-11136 [DTC],2024-141K,2026-06-06T20:13:23.111904,15.69714050,.0000979,53.1590,6.8959,99.3625,260.7504,0,U,60407,999,10569,.12359531E-4,.909E-5,0
STARLINK-11196 [DTC],2024-141L,2026-06-05T21:11:04.392672,15.69710891,.0001275,53.1594,11.5673,51.7244,308.3889,0,U,60408,999,10559,.78215E-5,.359E-5,0
STARLINK-11174 [DTC],2024-141M,2026-06-06T07:38:43.035360,15.69718912,.00010588,53.1589,9.3091,99.3419,260.7718,0,U,60409,999,10561,.1663439E-4,.1428E-4,0
STARLINK-11191 [DTC],2024-141N,2026-06-06T07:31:39.221760,15.69717814,.00011665,53.1591,9.2720,128.8031,231.3092,0,U,60410,999,10566,.22003077E-4,.2078E-4,0
STARLINK-32244,2024-141P,2026-06-06T17:13:01.218144,15.31705521,.00010038,53.1593,188.8885,79.1121,280.9993,0,U,60411,999,10321,.2361269E-4,.368E-5,0
STARLINK-32186,2024-141Q,2026-06-06T10:30:22.464864,15.34420799,.00007446,53.1589,189.2772,41.1791,318.9268,0,U,60412,999,10312,-.16007957E-3,-.5784E-4,0
STARLINK-32178,2024-141R,2026-06-06T08:44:27.610080,15.34410213,.00012172,53.1585,189.5305,79.7947,280.3193,0,U,60413,999,10311,.19166481E-3,.6107E-4,0
STARLINK-32234,2024-141S,2026-06-06T09:09:46.853856,15.31704146,.00010981,53.1575,190.3446,65.8095,294.3021,0,U,60414,999,10316,.72164884E-4,.1875E-4,0
STARLINK-32265,2024-141T,2026-06-06T08:53:32.306784,15.34396834,.00009952,53.1595,189.5705,80.8830,279.2286,0,U,60415,999,10317,.38333825E-4,.919E-5,0
